ORBCOMM FM115           
1 41186U 15081H   24230.87539141  .00003470  00000+0  73428-3 0  9994
2 41186  46.9990  40.7293 0000628 194.9934 165.0934 14.61049699463391
ORBCOMM FM108           
1 41187U 15081J   24230.86194631  .00003856  00000+0  88774-3 0  9993
2 41187  47.0041  98.2578 0002151 347.0775  13.0055 14.56909116462547
ORBCOMM FM117           
1 41188U 15081K   24230.82794237  .00003792  00000+0  87396-3 0  9996
2 41188  47.0001  97.2793 0002726   2.7272 357.3627 14.56894708462580
ORBCOMM FM116           
1 41189U 15081L   24230.88513906  .00002979  00000+0  69518-3 0  9997
2 41189  46.9999 186.8294 0001465  75.2713 284.8334 14.56858730461404
